SAR-LUPE 2              
1 31797U 07030A   26177.18683933  .00036631  00000+0  61822-3 0  9991
2 31797  98.1043 282.7432 0002432 182.1545 177.9695 15.51563555 58333
SAPPHIRE                
1 39088U 13009C   26177.15508192  .00000107  00000+0  52306-4 0  9992
2 39088  98.4264 356.3979 0010424 217.3715 142.6747 14.35242863697867
PRAETORIAN SDA_602      
1 65565U 25203A   26176.91435567  .00000104  00000+0  82306-4 0  9998
2 65565  81.3029   2.6841 0006264 162.2891 197.8485 13.84278827 39903
PRAETORIAN SDA_603      
1 65566U 25203B   26177.01570834  .00000183  00000+0  15431-3 0  9999
2 65566  81.3036   2.5122 0009817 163.4594 196.6884 13.83905701 39922
PRAETORIAN SDA_604      
1 65567U 25203C   26176.96854935  .00000083  00000+0  65032-4 0  9992
2 65567  81.3052   2.9817 0005756 167.5528 192.5771 13.83048359 39899
PRAETORIAN SDA_605      
1 65568U 25203D   26177.00375527  .00000058  00000+0  41897-4 0  9999
2 65568  81.3019   2.6037 0008569 159.5375 200.6126 13.83434877 39912
PRAETORIAN SDA_606      
1 65569U 25203E   26176.98783125  .00000054  00000+0  38487-4 0  9990
2 65569  81.3052   2.8467 0006442 162.1456 197.9927 13.83198572 39902
PRAETORIAN SDA_607      
1 65570U 25203F   26176.98893553  .00000197  00000+0  16585-3 0  9991
2 65570  81.3038   2.4922 0009189 163.6631 196.4823 13.84285239 39921
PRAETORIAN SDA_608      
1 65571U 25203G   26176.96930403  .00000043  00000+0  28030-4 0  9995
2 65571  81.3005   2.6759 0006261 166.8401 193.2920 13.83817276 39906
PRAETORIAN SDA_609      
1 65572U 25203H   26176.97172372  .00000219  00000+0  18567-3 0  9998
2 65572  81.3048   2.6550 0007214 161.7684 198.3733 13.84209563 39913
PRAETORIAN SDA_610      
1 65573U 25203J   26176.94934940  .00000081  00000+0  62142-4 0  9999
2 65573  81.3007   2.6531 0007033 166.5444 193.5901 13.83768337 39905
PRAETORIAN SDA_611      
1 65574U 25203K   26176.95305348  .00000395  00000+0  34893-3 0  9994
2 65574  81.3010   2.8219 0005787 170.2132 189.9137 13.83310183 39895
PRAETORIAN SDA_612      
1 65575U 25203L   26177.00396816  .00000179  00000+0  14758-3 0  9990
2 65575  81.3029   2.3391 0009578 163.2149 196.9327 13.85040799 39933
PRAETORIAN SDA_613      
1 65576U 25203M   26176.96324503  .00000070  00000+0  53858-4 0  9994
2 65576  81.2999   2.8159 0006041 160.4589 199.6800 13.82765843 39897
PRAETORIAN SDA_614      
1 65577U 25203N   26176.99480880  .00000065  00000+0  47218-4 0  9996
2 65577  81.3013   2.4276 0007511 160.0871 200.0581 13.84777951 39938
PRAETORIAN SDA_615      
1 65578U 25203P   26176.97386569  .00000256  00000+0  21810-3 0  9995
2 65578  81.3018   2.4157 0009450 161.7599 198.3899 13.84436748 39927
PRAETORIAN SDA_616      
1 65579U 25203Q   26176.88019735  .00000207  00000+0  17779-3 0  9999
2 65579  81.3063   3.0402 0005738 168.5538 191.5750 13.83268736 39886
PRAETORIAN SDA_617      
1 65580U 25203R   26176.97488104  .00000048  00000+0  33106-4 0  9997
2 65580  81.3035   2.7828 0007775 160.5920 199.5533 13.83150418 39902
PRAETORIAN SDA_618      
1 65581U 25203S   26177.01069553  .00000224  00000+0  18861-3 0  9993
2 65581  81.3020   2.3087 0010103 163.9650 196.1828 13.84670635 39938
PRAETORIAN SDA_619      
1 65582U 25203T   26176.97984299  .00000207  00000+0  17599-3 0  9999
2 65582  81.3045   2.6483 0008561 161.9445 198.2017 13.83806713 40543
PRAETORIAN SDA_620      
1 65583U 25203U   26177.00902237  .00000244  00000+0  21013-3 0  9994
2 65583  81.3030   2.6436 0008036 157.7529 202.3977 13.83619043 39918
PRAETORIAN SDA_621      
1 65584U 25203V   26176.98164294  .00000079  00000+0  60703-4 0  9990
2 65584  81.3021   2.5833 0007839 155.4507 204.7024 13.83802076 39919
PRAETORIAN SDA_601      
1 65585U 25203W   26176.88396161  .00000452  00000+0  40206-3 0  9990
2 65585  81.3040   2.9807 0005747 171.5013 188.6241 13.83168692 39889
VICTUS HAZE PUMA        
1 69646U 26142A   26176.63786164  .00004341  00000+0  19951-3 0  9998
2 69646  97.4480  74.1659 0021135 297.4953  62.4134 15.20709621   955
